NORAD_CAT_ID,OBJECT_NAME,OBJECT_TYPE,EPOCH,MEAN_MOTION,ECCENTRICITY,INCLINATION,RA_OF_ASC_NODE,ARG_OF_PERICENTER,MEAN_ANOMALY,BSTAR,MEAN_MOTION_DOT,MEAN_MOTION_DDOT,TLE_LINE0,TLE_LINE1,TLE_LINE2,SEMIMAJOR_AXIS,PERIOD,APOGEE,PERIGEE,DECAYED
56461.0,STARLINK-6037,PAYLOAD,2024-03-04 18:05:28,14.98307955,0.000263,70.0011,197.3332,266.5138,93.5721,-0.00026049,-3.198e-05,0.0,0 STARLINK-6037,1 56461U 23064P   24064.75380290 -.00003198  00000-0 -26049-3 0  9994,2 56461  70.0011 197.3332 0002630 266.5138  93.5721 14.98307955 45527,6950.261,96.108,573.954,570.298,0.0
56461.0,STARLINK-6037,PAYLOAD,2024-03-05 13:19:04,14.98317062,0.0003047,70.0001,195.3131,268.0866,91.9944,-1.8825e-05,-3.18e-06,0.0,0 STARLINK-6037,1 56461U 23064P   24065.55491697 -.00000318  00000-0 -18825-4 0  9992,2 56461  70.0001 195.3131 0003047 268.0866  91.9944 14.98317062 45281,6950.233,96.108,574.216,569.98,0.0
56461.0,STARLINK-6037,PAYLOAD,2024-03-05 18:07:28,14.98324303,0.0002854,70.0006,194.808,262.2691,97.8144,3.6504e-05,3.43e-06,0.0,0 STARLINK-6037,1 56461U 23064P   24065.75519151  .00000343  00000-0  36504-4 0  9990,2 56461  70.0006 194.8080 0002854 262.2691  97.8144 14.98324303 45676,6950.211,96.107,574.059,570.092,0.0
56461.0,STARLINK-6037,PAYLOAD,2024-03-06 11:44:56,14.98318486,0.0002962,70.0004,192.957,266.6126,93.4694,0.00024497,2.83e-05,0.0,0 STARLINK-6037,1 56461U 23064P   24066.48954808  .00002830  00000-0  24497-3 0  9993,2 56461  70.0004 192.9570 0002962 266.6126  93.4694 14.98318486 45428,6950.228,96.108,574.152,570.035,0.0
56461.0,STARLINK-6037,PAYLOAD,2024-03-06 18:09:28,14.98325608,0.0002912,70.0006,192.284,266.6474,93.4351,0.0003026,3.519e-05,0.0,0 STARLINK-6037,1 56461U 23064P   24066.75658336  .00003519  00000-0  30260-3 0  9990,2 56461  70.0006 192.2840 0002912 266.6474  93.4351 14.98325608 45822,6950.206,96.107,574.095,570.048,0.0
56461.0,STARLINK-6037,PAYLOAD,2024-03-07 14:59:14,14.98329912,0.0002573,70.001,190.0946,269.4538,90.6326,6.4161e-05,6.73e-06,0.0,0 STARLINK-6037,1 56461U 23064P   24067.62447032  .00000673  00000-0  64161-4 0  9992,2 56461  70.0010 190.0946 0002573 269.4538  90.6326 14.98329912 45592,6950.193,96.107,573.846,570.27,0.0
56461.0,STARLINK-6037,PAYLOAD,2024-03-08 11:48:58,14.98339857,0.0002896,70.0005,187.9074,271.6388,88.4439,1.0889e-05,3.7e-07,0.0,0 STARLINK-6037,1 56461U 23064P   24068.49234220  .00000037  00000-0  10889-4 0  9993,2 56461  70.0005 187.9074 0002896 271.6388  88.4439 14.98339857 46083,6950.162,96.106,574.04,570.015,0.0
56461.0,STARLINK-6037,PAYLOAD,2024-03-08 15:01:13,14.98376235,0.0002311,70.0005,187.5706,259.3243,100.7655,-0.00050263,-6.092e-05,0.0,0 STARLINK-6037,1 56461U 23064P   24068.62585156 -.00006092  00000-0 -50263-3 0  9993,2 56461  70.0005 187.5706 0002311 259.3243 100.7655 14.98376235 45747,6950.05,96.104,573.521,570.309,0.0
56461.0,STARLINK-6037,PAYLOAD,2024-03-09 00:38:02,14.98343686,0.0002963,70.0004,186.5607,274.6261,85.4559,-3.187e-05,-4.73e-06,0.0,0 STARLINK-6037,1 56461U 23064P   24069.02641685 -.00000473  00000-0 -31870-4 0  9999,2 56461  70.0004 186.5607 0002963 274.6261  85.4559 14.98343686 46161,6950.151,96.106,574.075,569.956,0.0
56461.0,STARLINK-6037,PAYLOAD,2024-03-09 11:50:59,14.98327132,0.00027,70.0007,185.3827,274.5647,85.5204,-1.1404e-05,-2.29e-06,0.0,0 STARLINK-6037,1 56461U 23064P   24069.49374648 -.00000229  00000-0 -11404-4 0  9992,2 56461  70.0007 185.3827 0002700 274.5647  85.5204 14.98327132 46235,6950.202,96.107,573.943,570.19,0.0
56461.0,STARLINK-6037,PAYLOAD,2024-03-10 13:29:08,14.98333745,0.0002805,70.0006,182.69,269.1671,90.9167,-8.6528e-05,-1.125e-05,0.0,0 STARLINK-6037,1 56461U 23064P   24070.56190260 -.00001125  00000-0 -86528-4 0  9993,2 56461  70.0006 182.6900 0002805 269.1671  90.9167 14.98333745 46391,6950.181,96.107,573.996,570.097,0.0
56461.0,STARLINK-6037,PAYLOAD,2024-03-11 13:31:08,14.98348022,0.0002997,70.0003,180.1652,268.8096,91.2719,-0.0002378,-2.931e-05,0.0,0 STARLINK-6037,1 56461U 23064P   24071.56329628 -.00002931  00000-0 -23780-3 0  9992,2 56461  70.0003 180.1652 0002997 268.8096  91.2719 14.98348022 46542,6950.137,96.106,574.085,569.919,0.0
56461.0,STARLINK-6037,PAYLOAD,2024-03-12 13:33:10,14.98328695,0.0003094,69.9998,177.6393,267.9259,92.1546,7.8264e-06,0.0,0.0,0 STARLINK-6037,1 56461U 23064P   24072.56470253  .00000000  00000-0  78264-5 0  9996,2 56461  69.9998 177.6393 0003094 267.9259  92.1546 14.98328695 46693,6950.197,96.107,574.212,569.912,0.0
56461.0,STARLINK-6037,PAYLOAD,2024-03-12 16:45:26,14.98330073,0.0003038,69.9998,177.3025,267.8238,92.2573,2.4162e-05,1.95e-06,0.0,0 STARLINK-6037,1 56461U 23064P   24072.69822125  .00000195  00000-0  24162-4 0  9991,2 56461  69.9998 177.3025 0003038 267.8238  92.2573 14.98330073 46353,6950.193,96.107,574.169,569.946,0.0
56461.0,STARLINK-6037,PAYLOAD,2024-03-13 13:35:10,14.98333379,0.0003005,70.0007,175.1166,269.1735,90.9079,9.0598e-05,9.88e-06,0.0,0 STARLINK-6037,1 56461U 23064P   24073.56609716  .00000988  00000-0  90598-4 0  9993,2 56461  70.0007 175.1166 0003005 269.1735  90.9079 14.98333379 46842,6950.182,96.107,574.136,569.959,0.0
56461.0,STARLINK-6037,PAYLOAD,2024-03-14 05:36:31,14.98347069,0.0002664,70.0006,173.4335,262.4691,97.6165,-0.00020269,-2.512e-05,0.0,0 STARLINK-6037,1 56461U 23064P   24074.23369666 -.00002512  00000-0 -20269-3 0  9999,2 56461  70.0006 173.4335 0002664 262.4691  97.6165 14.98347069 46589,6950.14,96.106,573.857,570.154,0.0
56461.0,STARLINK-6037,PAYLOAD,2024-03-14 12:01:03,14.98331865,0.0002863,70.0006,172.7599,264.256,95.8273,2.6782e-05,2.27e-06,0.0,0 STARLINK-6037,1 56461U 23064P   24074.50073698  .00000227  00000-0  26782-4 0  9992,2 56461  70.0006 172.7599 0002863 264.2560  95.8273 14.98331865 46621,6950.187,96.107,574.042,570.062,0.0
56461.0,STARLINK-6037,PAYLOAD,2024-03-15 05:38:32,14.98333101,0.0003101,70.0003,170.9084,270.2903,89.7901,-3.6946e-05,-5.34e-06,0.0,0 STARLINK-6037,1 56461U 23064P   24075.23509708 -.00000534  00000-0 -36946-4 0  9995,2 56461  70.0003 170.9084 0003101 270.2903  89.7901 14.98333101 47098,6950.183,96.107,574.204,569.893,0.0
56461.0,STARLINK-6037,PAYLOAD,2024-03-15 12:03:04,14.98330584,0.0003173,70.0001,170.2345,272.0241,88.0554,-6.2111e-05,-8.34e-06,0.0,0 STARLINK-6037,1 56461U 23064P   24075.50213903 -.00000834  00000-0 -62111-4 0  9990,2 56461  70.0001 170.2345 0003173 272.0241  88.0554 14.98330584 46775,6950.191,96.107,574.261,569.851,0.0
56461.0,STARLINK-6037,PAYLOAD,2024-03-16 12:05:05,14.98328341,0.0003016,70.0003,167.7098,267.8427,92.2387,-3.1427e-05,-4.68e-06,0.0,0 STARLINK-6037,1 56461U 23064P   24076.50353933 -.00000468  00000-0 -31427-4 0  9998,2 56461  70.0003 167.7098 0003016 267.8427  92.2387 14.98328341 47283,6950.198,96.107,574.159,569.967,0.0
56461.0,STARLINK-6037,PAYLOAD,2024-03-16 13:41:13,14.98328616,0.0002983,70.0004,167.5416,266.8859,93.1958,-2.789e-05,-4.26e-06,0.0,0 STARLINK-6037,1 56461U 23064P   24076.57029906 -.00000426  00000-0 -27890-4 0  9998,2 56461  70.0004 167.5416 0002983 266.8859  93.1958 14.98328616 46936,6950.197,96.107,574.135,569.989,0.0
56461.0,STARLINK-6037,PAYLOAD,2024-03-16 15:17:21,14.98329634,0.0002958,70.0005,167.3734,266.0224,94.0597,-1.5909e-05,-2.83e-06,0.0,0 STARLINK-6037,1 56461U 23064P   24076.63705804 -.00000283  00000-0 -15909-4 0  9992,2 56461  70.0005 167.3734 0002958 266.0224  94.0597 14.98329634 46949,6950.194,96.107,574.115,570.003,0.0
56461.0,STARLINK-6037,PAYLOAD,2024-03-17 12:07:06,14.98328218,0.000295,70.0005,165.1857,264.2333,95.849,4.3765e-05,4.29e-06,0.0,0 STARLINK-6037,1 56461U 23064P   24077.50493732  .00000429  00000-0  43765-4 0  9994,2 56461  70.0005 165.1857 0002950 264.2333  95.8490 14.98328218 47437,6950.198,96.107,574.114,570.013,0.0
56461.0,STARLINK-6037,PAYLOAD,2024-03-17 13:43:14,14.98329139,0.000292,70.0005,165.0173,263.4134,96.6693,5.1873e-05,5.26e-06,0.0,0 STARLINK-6037,1 56461U 23064P   24077.57169648  .00000526  00000-0  51873-4 0  9994,2 56461  70.0005 165.0173 0002920 263.4134  96.6693 14.98329139 47082,6950.196,96.107,574.09,570.031,0.0
56461.0,STARLINK-6037,PAYLOAD,2024-03-17 15:19:22,14.98329579,0.0002913,70.0006,164.8491,263.102,96.9808,5.6415e-05,5.8e-06,0.0,0 STARLINK-6037,1 56461U 23064P   24077.63845608  .00000580  00000-0  56415-4 0  9995,2 56461  70.0006 164.8491 0002913 263.1020  96.9808 14.98329579 47096,6950.194,96.107,574.084,570.035,0.0
56461.0,STARLINK-6037,PAYLOAD,2024-03-18 12:09:08,14.98324096,0.0002841,70.001,162.6627,258.3272,101.7569,-3.0761e-05,-4.6e-06,0.0,0 STARLINK-6037,1 56461U 23064P   24078.50634352 -.00000460  00000-0 -30761-4 0  9999,2 56461  70.0010 162.6627 0002841 258.3272 101.7569 14.98324096 47585,6950.211,96.107,574.051,570.102,0.0
56461.0,STARLINK-6037,PAYLOAD,2024-03-19 12:11:07,14.98336911,0.0002794,70.0012,160.1383,256.7314,103.3533,9.588e-05,1.051e-05,0.0,0 STARLINK-6037,1 56461U 23064P   24079.50773096  .00001051  00000-0  95880-4 0  9997,2 56461  70.0012 160.1383 0002794 256.7314 103.3533 14.98336911 47370,6950.172,96.107,573.978,570.095,0.0
56461.0,STARLINK-6037,PAYLOAD,2024-03-19 15:23:23,14.98345611,0.0003051,70.0001,159.7995,270.8473,89.2337,0.00016208,1.842e-05,0.0,0 STARLINK-6037,1 56461U 23064P   24079.64124323  .00001842  00000-0  16208-3 0  9999,2 56461  70.0001 159.7995 0003051 270.8473  89.2337 14.98345611 47754,6950.145,96.106,574.13,569.889,0.0
56461.0,STARLINK-6037,PAYLOAD,2024-03-20 10:37:02,14.98317185,0.0003546,69.9992,157.7789,287.1966,72.8804,-6.1565e-05,-8.27e-06,0.0,0 STARLINK-6037,1 56461U 23064P   24080.44239025 -.00000827  00000-0 -61565-4 0  9996,2 56461  69.9992 157.7789 0003546 287.1966  72.8804 14.98317185 47871,6950.233,96.108,574.562,569.633,0.0
56461.0,STARLINK-6037,PAYLOAD,2024-03-20 13:49:18,14.98320067,0.0003111,69.9996,157.4427,280.5786,79.5022,-6.7404e-05,-8.97e-06,0.0,0 STARLINK-6037,1 56461U 23064P   24080.57590858 -.00000897  00000-0 -67404-4 0  9999,2 56461  69.9996 157.4427 0003111 280.5786  79.5022 14.98320067 47538,6950.224,96.108,574.251,569.926,0.0
